{
  "type": "FeatureCollection",
  "features": [
    {
      "type": "Feature",
      "properties": {
        "norad_id": 31619,
        "name": "FENGYUN 1C DEB",
        "group": "fengyun-1c-debris",
        "lat": -43.63217353431775,
        "lon": -8.652167114416391,
        "alt_km": 593.0582055040313,
        "timestamp": "2025-12-13T10:41:26.049599+00:00",
        "meta_object_name": "FENGYUN 1C DEB",
        "meta_object_id": "1999-025BZZ",
        "meta_epoch": "2025-12-12T23:58:34.000896",
        "meta_mean_motion": 14.85529501,
        "meta_eccentricity": 0.00955773,
        "meta_inclination": 99.0726,
        "meta_ra_of_asc_node": 179.602,
        "meta_arg_of_pericenter": 293.8525,
        "meta_mean_anomaly": 65.2692,
        "meta_ephemeris_type": 0,
        "meta_classification_type": "U",
        "meta_norad_cat_id": 31619,
        "meta_element_set_no": 999,
        "meta_rev_at_epoch": 63492,
        "meta_bstar": 0.0066780855,
        "meta_mean_motion_dot": 0.0006309,
        "meta_mean_motion_ddot": 0,
        "tle_line1": "1 31619U 99025BZZ 25346.99900464  .00063090  00000+0  66781-2 0  9993",
        "tle_line2": "2 31619  99.0726 179.6020 0095577 293.8525  65.2692 14.85529501634921"
      },
      "geometry": {
        "type": "Point",
        "coordinates": [
          -8.652167114416391,
          -43.63217353431775
        ]
      }
    },
    {
      "type": "Feature",
      "properties": {
        "norad_id": 31620,
        "name": "FENGYUN 1C DEB",
        "group": "fengyun-1c-debris",
        "lat": 78.48174446380372,
        "lon": 21.39705755607664,
        "alt_km": 748.9519949381092,
        "timestamp": "2025-12-13T10:41:26.049611+00:00",
        "meta_object_name": "FENGYUN 1C DEB",
        "meta_object_id": "1999-025CAA",
        "meta_epoch": "2025-12-07T23:58:44.073408",
        "meta_mean_motion": 14.37123121,
        "meta_eccentricity": 0.00207062,
        "meta_inclination": 98.8866,
        "meta_ra_of_asc_node": 65.9275,
        "meta_arg_of_pericenter": 59.0655,
        "meta_mean_anomaly": 301.2562,
        "meta_ephemeris_type": 0,
        "meta_classification_type": "U",
        "meta_norad_cat_id": 31620,
        "meta_element_set_no": 999,
        "meta_rev_at_epoch": 65776,
        "meta_bstar": 0.0029103432,
        "meta_mean_motion_dot": 8.633e-05,
        "meta_mean_motion_ddot": 0,
        "tle_line1": "1 31620U 99025CAA 25341.99912122  .00008633  00000+0  29103-2 0  9993",
        "tle_line2": "2 31620  98.8866  65.9275 0020706  59.0655 301.2562 14.37123121657763"
      },
      "geometry": {
        "type": "Point",
        "coordinates": [
          21.39705755607664,
          78.48174446380372
        ]
      }
    },
    {
      "type": "Feature",
      "properties": {
        "norad_id": 31622,
        "name": "FENGYUN 1C DEB",
        "group": "fengyun-1c-debris",
        "lat": 66.161820604864,
        "lon": 61.67096492105562,
        "alt_km": 760.8031822877019,
        "timestamp": "2025-12-13T10:41:26.049622+00:00",
        "meta_object_name": "FENGYUN 1C DEB",
        "meta_object_id": "1999-025CAC",
        "meta_epoch": "2025-12-12T18:22:15.210048",
        "meta_mean_motion": 14.37184199,
        "meta_eccentricity": 0.00149905,
        "meta_inclination": 98.8163,
        "meta_ra_of_asc_node": 81.5383,
        "meta_arg_of_pericenter": 342.3636,
        "meta_mean_anomaly": 169.1071,
        "meta_ephemeris_type": 0,
        "meta_classification_type": "U",
        "meta_norad_cat_id": 31622,
        "meta_element_set_no": 999,
        "meta_rev_at_epoch": 95772,
        "meta_bstar": 0.0028658813,
        "meta_mean_motion_dot": 8.501e-05,
        "meta_mean_motion_ddot": 0,
        "tle_line1": "1 31622U 99025CAC 25346.76545382  .00008501  00000+0  28659-2 0  9994",
        "tle_line2": "2 31622  98.8163  81.5383 0014990 342.3636 169.1071 14.37184199957721"
      },
      "geometry": {
        "type": "Point",
        "coordinates": [
          61.67096492105562,
          66.161820604864
        ]
      }
    },
    {
      "type": "Feature",
      "properties": {
        "norad_id": 31623,
        "name": "FENGYUN 1C DEB",
        "group": "fengyun-1c-debris",
        "lat": -41.58242292537076,
        "lon": 12.0611241856626,
        "alt_km": 1073.3011666255206,
        "timestamp": "2025-12-13T10:41:26.049632+00:00",
        "meta_object_name": "FENGYUN 1C DEB",
        "meta_object_id": "1999-025CAD",
        "meta_epoch": "2025-12-02T20:02:22.350624",
        "meta_mean_motion": 13.82580933,
        "meta_eccentricity": 0.01951152,
        "meta_inclination": 97.6304,
        "meta_ra_of_asc_node": 190.283,
        "meta_arg_of_pericenter": 33.7651,
        "meta_mean_anomaly": 327.5758,
        "meta_ephemeris_type": 0,
        "meta_classification_type": "U",
        "meta_norad_cat_id": 31623,
        "meta_element_set_no": 999,
        "meta_rev_at_epoch": 57783,
        "meta_bstar": 0.00047153491,
        "meta_mean_motion_dot": 5.61e-06,
        "meta_mean_motion_ddot": 0,
        "tle_line1": "1 31623U 99025CAD 25336.83498091  .00000561  00000+0  47153-3 0  9995",
        "tle_line2": "2 31623  97.6304 190.2830 0195115  33.7651 327.5758 13.82580933577835"
      },
      "geometry": {
        "type": "Point",
        "coordinates": [
          12.0611241856626,
          -41.58242292537076
        ]
      }
    },
    {
      "type": "Feature",
      "properties": {
        "norad_id": 31625,
        "name": "FENGYUN 1C DEB",
        "group": "fengyun-1c-debris",
        "lat": 79.43446791594356,
        "lon": -50.278568466809126,
        "alt_km": 684.7745757713938,
        "timestamp": "2025-12-13T10:41:26.049642+00:00",
        "meta_object_name": "FENGYUN 1C DEB",
        "meta_object_id": "1999-025CAF",
        "meta_epoch": "2025-12-13T00:55:51.136320",
        "meta_mean_motion": 14.55399395,
        "meta_eccentricity": 0.0149308,
        "meta_inclination": 98.8062,
        "meta_ra_of_asc_node": 73.0796,
        "meta_arg_of_pericenter": 14.8715,
        "meta_mean_anomaly": 109.8758,
        "meta_ephemeris_type": 0,
        "meta_classification_type": "U",
        "meta_norad_cat_id": 31625,
        "meta_element_set_no": 999,
        "meta_rev_at_epoch": 98397,
        "meta_bstar": 0.00022377433,
        "meta_mean_motion_dot": 1.069e-05,
        "meta_mean_motion_ddot": 0,
        "tle_line1": "1 31625U 99025CAF 25347.03878630  .00001069  00000+0  22377-3 0  9997",
        "tle_line2": "2 31625  98.8062  73.0796 0149308  14.8715 109.8758 14.55399395983972"
      },
      "geometry": {
        "type": "Point",
        "coordinates": [
          -50.278568466809126,
          79.43446791594356
        ]
      }
    },
    {
      "type": "Feature",
      "properties": {
        "norad_id": 31627,
        "name": "FENGYUN 1C DEB",
        "group": "fengyun-1c-debris",
        "lat": -79.08677302109827,
        "lon": 86.43631289102488,
        "alt_km": 801.9019285326449,
        "timestamp": "2025-12-13T10:41:26.049652+00:00",
        "meta_object_name": "FENGYUN 1C DEB",
        "meta_object_id": "1999-025CAH",
        "meta_epoch": "2025-11-26T09:13:22.975680",
        "meta_mean_motion": 14.35408996,
        "meta_eccentricity": 0.00515931,
        "meta_inclination": 98.5313,
        "meta_ra_of_asc_node": 18.4415,
        "meta_arg_of_pericenter": 201.9005,
        "meta_mean_anomaly": 157.9975,
        "meta_ephemeris_type": 0,
        "meta_classification_type": "U",
        "meta_norad_cat_id": 31627,
        "meta_element_set_no": 999,
        "meta_rev_at_epoch": 64532,
        "meta_bstar": 0.0013473839,
        "meta_mean_motion_dot": 3.885e-05,
        "meta_mean_motion_ddot": 0,
        "tle_line1": "1 31627U 99025CAH 25330.38429370  .00003885  00000+0  13474-2 0  9997",
        "tle_line2": "2 31627  98.5313  18.4415 0051593 201.9005 157.9975 14.35408996645325"
      },
      "geometry": {
        "type": "Point",
        "coordinates": [
          86.43631289102488,
          -79.08677302109827
        ]
      }
    },
    {
      "type": "Feature",
      "properties": {
        "norad_id": 31628,
        "name": "FENGYUN 1C DEB",
        "group": "fengyun-1c-debris",
        "lat": 62.495765635568326,
        "lon": 47.200044805076956,
        "alt_km": 960.9181685466629,
        "timestamp": "2025-12-13T10:41:26.049668+00:00",
        "meta_object_name": "FENGYUN 1C DEB",
        "meta_object_id": "1999-025CAJ",
        "meta_epoch": "2025-12-11T07:54:48.314304",
        "meta_mean_motion": 13.86824838,
        "meta_eccentricity": 0.01689763,
        "meta_inclination": 102.2698,
        "meta_ra_of_asc_node": 199.7269,
        "meta_arg_of_pericenter": 223.5852,
        "meta_mean_anomaly": 135.1839,
        "meta_ephemeris_type": 0,
        "meta_classification_type": "U",
        "meta_norad_cat_id": 31628,
        "meta_element_set_no": 999,
        "meta_rev_at_epoch": 93280,
        "meta_bstar": 0.0035626091,
        "meta_mean_motion_dot": 4.587e-05,
        "meta_mean_motion_ddot": 0,
        "tle_line1": "1 31628U 99025CAJ 25345.32972586  .00004587  00000+0  35626-2 0  9993",
        "tle_line2": "2 31628 102.2698 199.7269 0168976 223.5852 135.1839 13.86824838932800"
      },
      "geometry": {
        "type": "Point",
        "coordinates": [
          47.200044805076956,
          62.495765635568326
        ]
      }
    }
  ]
}